[{"OBJECT_NAME":"STARLINK-34783","OBJECT_ID":"2025-253U","EPOCH":"2026-03-09T10:55:08.706432","MEAN_MOTION":15.27570908,"ECCENTRICITY":0.00013251,"INCLINATION":43.0028,"RA_OF_ASC_NODE":214.2599,"ARG_OF_PERICENTER":266.6833,"MEAN_ANOMALY":93.3867,"EPHEMERIS_TYPE":0,"CLASSIFICATION_TYPE":"U","NORAD_CAT_ID":66337,"ELEMENT_SET_NO":999,"REV_AT_EPOCH":2020,"BSTAR":0.00095156447,"MEAN_MOTION_DOT":0.00026008,"MEAN_MOTION_DDOT":0},{"OBJECT_NAME":"COSMOS 2251 DEB","OBJECT_ID":"1993-036RB","EPOCH":"2026-03-09T01:08:04.800192","MEAN_MOTION":15.30699894,"ECCENTRICITY":0.00252965,"INCLINATION":73.7308,"RA_OF_ASC_NODE":76.2904,"ARG_OF_PERICENTER":263.9966,"MEAN_ANOMALY":95.8352,"EPHEMERIS_TYPE":0,"CLASSIFICATION_TYPE":"U","NORAD_CAT_ID":34410,"ELEMENT_SET_NO":999,"REV_AT_EPOCH":91089,"BSTAR":0.003018315,"MEAN_MOTION_DOT":0.00091531,"MEAN_MOTION_DDOT":0}]
